{"type": "FeatureCollection", "features": [ {"type": "Feature", "properties": {"norad_id": 54031, "name": "COSMOS 2559 (707K)", "group": "gnss", "lat": -6.791043211919675, "lon": 143.86929271628117, "alt_km": 19102.274866916057, "timestamp": "2025-12-27T21:25:02.755965+00:00", "meta": {"OBJECT_NAME": "COSMOS 2559 (707K)", "OBJECT_ID": "2022-130A", "EPOCH": "2025-12-27T04:17:20.598432", "MEAN_MOTION": 2.13101168, "ECCENTRICITY": 0.0011445, "INCLINATION": 64.3739, "RA_OF_ASC_NODE": 320.6332, "ARG_OF_PERICENTER": 191.4808, "MEAN_ANOMALY": 168.4977, "EPHEMERIS_TYPE": 0, "CLASSIFICATION_TYPE": "U", "NORAD_CAT_ID": 54031, "ELEMENT_SET_NO": 999, "REV_AT_EPOCH": 2502, "BSTAR": 0, "MEAN_MOTION_DOT": -3.9e-07, "MEAN_MOTION_DDOT": 0}, "tle": {"line1": "1 54031U 22130A   25361.17871063 -.00000039  00000+0  00000+0 0  9992", "line2": "2 54031  64.3739 320.6332 0011445 191.4808 168.4977  2.13101168 25026"}}, "geometry": {"type": "Point", "coordinates": [143.86929271628117, -6.791043211919675]}}, {"type": "Feature", "properties": {"norad_id": 54377, "name": "COSMOS 2564 (761)", "group": "gnss", "lat": -46.088443573675356, "lon": 169.01747581600415, "alt_km": 19140.54101252374, "timestamp": "2025-12-27T21:25:02.755983+00:00", "meta": {"OBJECT_NAME": "COSMOS 2564 (761)", "OBJECT_ID": "2022-161A", "EPOCH": "2025-12-27T00:32:50.727840", "MEAN_MOTION": 2.13101958, "ECCENTRICITY": 0.00085395, "INCLINATION": 64.7392, "RA_OF_ASC_NODE": 198.4243, "ARG_OF_PERICENTER": 203.4322, "MEAN_ANOMALY": 156.5843, "EPHEMERIS_TYPE": 0, "CLASSIFICATION_TYPE": "U", "NORAD_CAT_ID": 54377, "ELEMENT_SET_NO": 999, "REV_AT_EPOCH": 2396, "BSTAR": 0, "MEAN_MOTION_DOT": 1.19e-06, "MEAN_MOTION_DDOT": 0}, "tle": {"line1": "1 54377U 22161A   25361.02280935  .00000119  00000+0  00000+0 0  9993", "line2": "2 54377  64.7392 198.4243 0008539 203.4322 156.5843  2.13101958 23963"}}, "geometry": {"type": "Point", "coordinates": [169.01747581600415, -46.088443573675356]}}, {"type": "Feature", "properties": {"norad_id": 55268, "name": "GPS BIII-6  (PRN 28)", "group": "gnss", "lat": -29.020594979056366, "lon": 132.46407351689936, "alt_km": 20178.373035914683, "timestamp": "2025-12-27T21:25:02.756000+00:00", "meta": {"OBJECT_NAME": "GPS BIII-6  (PRN 28)", "OBJECT_ID": "2023-009A", "EPOCH": "2025-12-22T10:59:58.065216", "MEAN_MOTION": 2.00554901, "ECCENTRICITY": 0.00037047, "INCLINATION": 55.1065, "RA_OF_ASC_NODE": 155.4638, "ARG_OF_PERICENTER": 355.7912, "MEAN_ANOMALY": 4.4255, "EPHEMERIS_TYPE": 0, "CLASSIFICATION_TYPE": "U", "NORAD_CAT_ID": 55268, "ELEMENT_SET_NO": 999, "REV_AT_EPOCH": 2170, "BSTAR": 0, "MEAN_MOTION_DOT": 7.4e-07, "MEAN_MOTION_DDOT": 0}, "tle": {"line1": "1 55268U 23009A   25356.45831094  .00000074  00000+0  00000+0 0  9994", "line2": "2 55268  55.1065 155.4638 0003704 355.7912   4.4255  2.00554901 21704"}}, "geometry": {"type": "Point", "coordinates": [132.46407351689936, -29.020594979056366]}}, {"type": "Feature", "properties": {"norad_id": 56564, "name": "BEIDOU-3 G4 (C62)", "group": "gnss", "lat": -0.7911791870137598, "lon": -142.06631945488118, "alt_km": 35778.95648364171, "timestamp": "2025-12-27T21:25:02.756018+00:00", "meta": {"OBJECT_NAME": "BEIDOU-3 G4 (C62)", "OBJECT_ID": "2023-066A", "EPOCH": "2025-12-27T13:39:33.878304", "MEAN_MOTION": 1.00270462, "ECCENTRICITY": 0.0002481, "INCLINATION": 0.7842, "RA_OF_ASC_NODE": 303.2168, "ARG_OF_PERICENTER": 231.6428, "MEAN_ANOMALY": 286.3758, "EPHEMERIS_TYPE": 0, "CLASSIFICATION_TYPE": "U", "NORAD_CAT_ID": 56564, "ELEMENT_SET_NO": 999, "REV_AT_EPOCH": 967, "BSTAR": 0, "MEAN_MOTION_DOT": -8.8e-07, "MEAN_MOTION_DDOT": 0}, "tle": {"line1": "1 56564U 23066A   25361.56914211 -.00000088  00000+0  00000+0 0  9994", "line2": "2 56564   0.7842 303.2168 0002481 231.6428 286.3758  1.00270462  9676"}}, "geometry": {"type": "Point", "coordinates": [-142.06631945488118, -0.7911791870137598]}}, {"type": "Feature", "properties": {"norad_id": 56759, "name": "NVS-01 (IRNSS-1J)", "group": "gnss", "lat": -2.3188288933636367, "lon": -172.66112190895254, "alt_km": 35781.57130825065, "timestamp": "2025-12-27T21:25:02.756059+00:00", "meta": {"OBJECT_NAME": "NVS-01 (IRNSS-1J)", "OBJECT_ID": "2023-076A", "EPOCH": "2025-12-27T10:11:36.454272", "MEAN_MOTION": 1.00269556, "ECCENTRICITY": 0.000901, "INCLINATION": 2.5838, "RA_OF_ASC_NODE": 251.0794, "ARG_OF_PERICENTER": 17.9381, "MEAN_ANOMALY": 109.5938, "EPHEMERIS_TYPE": 0, "CLASSIFICATION_TYPE": "U", "NORAD_CAT_ID": 56759, "ELEMENT_SET_NO": 999, "REV_AT_EPOCH": 939, "BSTAR": 0, "MEAN_MOTION_DOT": -3.11e-06, "MEAN_MOTION_DDOT": 0}, "tle": {"line1": "1 56759U 23076A   25361.42472748 -.00000311  00000+0  00000+0 0  9999", "line2": "2 56759   2.5838 251.0794 0009010  17.9381 109.5938  1.00269556  9397"}}, "geometry": {"type": "Point", "coordinates": [-172.66112190895254, -2.3188288933636367]}}, {"type": "Feature", "properties": {"norad_id": 57517, "name": "COSMOS 2569 (703K)", "group": "gnss", "lat": -54.12458804686549, "lon": 38.74360348038516, "alt_km": 19107.97930048993, "timestamp": "2025-12-27T21:25:02.756083+00:00", "meta": {"OBJECT_NAME": "COSMOS 2569 (703K)", "OBJECT_ID": "2023-114A", "EPOCH": "2025-12-27T00:52:02.174592", "MEAN_MOTION": 2.13103907, "ECCENTRICITY": 0.0011067, "INCLINATION": 65.2014, "RA_OF_ASC_NODE": 78.4303, "ARG_OF_PERICENTER": 287.3137, "MEAN_ANOMALY": 72.6114, "EPHEMERIS_TYPE": 0, "CLASSIFICATION_TYPE": "U", "NORAD_CAT_ID": 57517, "ELEMENT_SET_NO": 999, "REV_AT_EPOCH": 1859, "BSTAR": 0, "MEAN_MOTION_DOT": -1.2e-07, "MEAN_MOTION_DDOT": 0}, "tle": {"line1": "1 57517U 23114A   25361.03613628 -.00000012  00000+0  00000+0 0  9994", "line2": "2 57517  65.2014  78.4303 0011067 287.3137  72.6114  2.13103907 18596"}}, "geometry": {"type": "Point", "coordinates": [38.74360348038516, -54.12458804686549]}}, {"type": "Feature", "properties": {"norad_id": 58654, "name": "BEIDOU-3 M28 (C50)", "group": "gnss", "lat": -54.03391594164044, "lon": -2.490727301527508, "alt_km": 21525.77122434841, "timestamp": "2025-12-27T21:25:02.756105+00:00", "meta": {"OBJECT_NAME": "BEIDOU-3 M28 (C50)", "OBJECT_ID": "2023-207A", "EPOCH": "2025-12-26T09:34:30.666720", "MEAN_MOTION": 1.86229622, "ECCENTRICITY": 0.0002968, "INCLINATION": 55.596, "RA_OF_ASC_NODE": 68.1388, "ARG_OF_PERICENTER": 276.5456, "MEAN_ANOMALY": 83.472, "EPHEMERIS_TYPE": 0, "CLASSIFICATION_TYPE": "U", "NORAD_CAT_ID": 58654, "ELEMENT_SET_NO": 999, "REV_AT_EPOCH": 1362, "BSTAR": 0, "MEAN_MOTION_DOT": -3.3e-07, "MEAN_MOTION_DDOT": 0}, "tle": {"line1": "1 58654U 23207A   25360.39896605 -.00000033  00000+0  00000+0 0  9999", "line2": "2 58654  55.5960  68.1388 0002968 276.5456  83.4720  1.86229622 13628"}}, "geometry": {"type": "Point", "coordinates": [-2.490727301527508, -54.03391594164044]}}, {"type": "Feature", "properties": {"norad_id": 58655, "name": "BEIDOU-3 M26 (C48)", "group": "gnss", "lat": 43.79867434863248, "lon": 109.10385071303105, "alt_km": 21533.617098287767, "timestamp": "2025-12-27T21:25:02.756126+00:00", "meta": {"OBJECT_NAME": "BEIDOU-3 M26 (C48)", "OBJECT_ID": "2023-207B", "EPOCH": "2025-12-27T06:29:22.403616", "MEAN_MOTION": 1.86231136, "ECCENTRICITY": 0.0004292, "INCLINATION": 55.5988, "RA_OF_ASC_NODE": 68.0955, "ARG_OF_PERICENTER": 262.2645, "MEAN_ANOMALY": 97.7357, "EPHEMERIS_TYPE": 0, "CLASSIFICATION_TYPE": "U", "NORAD_CAT_ID": 58655, "ELEMENT_SET_NO": 999, "REV_AT_EPOCH": 1362, "BSTAR": 0, "MEAN_MOTION_DOT": -3.8e-07, "MEAN_MOTION_DDOT": 0}, "tle": {"line1": "1 58655U 23207B   25361.27039819 -.00000038  00000+0  00000+0 0  9999", "line2": "2 58655  55.5988  68.0955 0004292 262.2645  97.7357  1.86231136 13629"}}, "geometry": {"type": "Point", "coordinates": [109.10385071303105, 43.79867434863248]}}, {"type": "Feature", "properties": {"norad_id": 59598, "name": "GSAT0225 (GALILEO 29)", "group": "gnss", "lat": -30.11224763761366, "lon": -50.19573646675869, "alt_km": 23220.13699488211, "timestamp": "2025-12-27T21:25:02.756146+00:00", "meta": {"OBJECT_NAME": "GSAT0225 (GALILEO 29)", "OBJECT_ID": "2024-079A", "EPOCH": "2025-12-25T18:42:53.226144", "MEAN_MOTION": 1.70474814, "ECCENTRICITY": 0.00021774, "INCLINATION": 55.0084, "RA_OF_ASC_NODE": 105.9312, "ARG_OF_PERICENTER": 191.4017, "MEAN_ANOMALY": 169.7242, "EPHEMERIS_TYPE": 0, "CLASSIFICATION_TYPE": "U", "NORAD_CAT_ID": 59598, "ELEMENT_SET_NO": 999, "REV_AT_EPOCH": 1036, "BSTAR": 0, "MEAN_MOTION_DOT": 1.7e-07, "MEAN_MOTION_DDOT": 0}, "tle": {"line1": "1 59598U 24079A   25359.77978271  .00000017  00000+0  00000+0 0  9996", "line2": "2 59598  55.0084 105.9312 0002177 191.4017 169.7242  1.70474814 10368"}}, "geometry": {"type": "Point", "coordinates": [-50.19573646675869, -30.11224763761366]}}, {"type": "Feature", "properties": {"norad_id": 59600, "name": "GSAT0227 (GALILEO 30)", "group": "gnss", "lat": 52.2612450955036, "lon": -138.80820868247375, "alt_km": 23207.772897126233, "timestamp": "2025-12-27T21:25:02.756167+00:00", "meta": {"OBJECT_NAME": "GSAT0227 (GALILEO 30)", "OBJECT_ID": "2024-079C", "EPOCH": "2025-12-21T20:31:35.455872", "MEAN_MOTION": 1.70474868, "ECCENTRICITY": 0.00028355, "INCLINATION": 55.0019, "RA_OF_ASC_NODE": 106.0394, "ARG_OF_PERICENTER": 117.3615, "MEAN_ANOMALY": 242.6419, "EPHEMERIS_TYPE": 0, "CLASSIFICATION_TYPE": "U", "NORAD_CAT_ID": 59600, "ELEMENT_SET_NO": 999, "REV_AT_EPOCH": 1034, "BSTAR": 0, "MEAN_MOTION_DOT": 4e-08, "MEAN_MOTION_DDOT": 0}, "tle": {"line1": "1 59600U 24079C   25355.85527148  .00000004  00000+0  00000+0 0  9994", "line2": "2 59600  55.0019 106.0394 0002835 117.3615 242.6419  1.70474868 10348"}}, "geometry": {"type": "Point", "coordinates": [-138.80820868247375, 52.2612450955036]}}]}